[{"OBJECT_NAME":"HERMES-3","OBJECT_ID":"2025-052BR","EPOCH":"2026-03-09T22:30:01.073952","MEAN_MOTION":15.30039786,"ECCENTRICITY":0.00079928,"INCLINATION":97.3987,"RA_OF_ASC_NODE":324.6131,"ARG_OF_PERICENTER":112.9583,"MEAN_ANOMALY":247.2502,"EPHEMERIS_TYPE":0,"CLASSIFICATION_TYPE":"U","NORAD_CAT_ID":63835,"ELEMENT_SET_NO":999,"REV_AT_EPOCH":5486,"BSTAR":0.0006995793,"MEAN_MOTION_DOT":0.00020316,"MEAN_MOTION_DDOT":0},{"OBJECT_NAME":"STARLINK-36077","OBJECT_ID":"2025-283AB","EPOCH":"2026-03-09T03:52:52.556160","MEAN_MOTION":15.30183768,"ECCENTRICITY":0.00012343,"INCLINATION":53.1613,"RA_OF_ASC_NODE":26.5921,"ARG_OF_PERICENTER":67.6201,"MEAN_ANOMALY":292.493,"EPHEMERIS_TYPE":0,"CLASSIFICATION_TYPE":"U","NORAD_CAT_ID":66903,"ELEMENT_SET_NO":999,"REV_AT_EPOCH":1576,"BSTAR":0.0010877752,"MEAN_MOTION_DOT":0.0003198,"MEAN_MOTION_DDOT":0}]
